{"type": "FeatureCollection", "features": [ {"type": "Feature", "properties": {"norad_id": 67100, "name": "STARLINK-36215", "group": "last-30-days", "lat": -34.928683630773946, "lon": -149.29155411385764, "alt_km": 304.2577745082526, "timestamp": "2025-12-21T09:37:21.375931+00:00", "meta": {"OBJECT_NAME": "STARLINK-36215", "OBJECT_ID": "2025-298AB", "EPOCH": "2025-12-21T04:00:01.998720", "MEAN_MOTION": 15.91665966, "ECCENTRICITY": 0.0003953, "INCLINATION": 69.9969, "RA_OF_ASC_NODE": 226.1265, "ARG_OF_PERICENTER": 271.8005, "MEAN_ANOMALY": 149.2384, "EPHEMERIS_TYPE": 0, "CLASSIFICATION_TYPE": "U", "NORAD_CAT_ID": 67100, "ELEMENT_SET_NO": 999, "REV_AT_EPOCH": 233, "BSTAR": -0.0057518, "MEAN_MOTION_DOT": -0.01864852, "MEAN_MOTION_DDOT": 0.00095353}, "tle": {"line1": "1 67100U 25298AB  25355.16668980 -.01864852  95353-3 -57518-2 0  9996", "line2": "2 67100  69.9969 226.1265 0003953 271.8005 149.2384 15.91665966  2334"}}, "geometry": {"type": "Point", "coordinates": [-149.29155411385764, -34.928683630773946]}}, {"type": "Feature", "properties": {"norad_id": 67101, "name": "STARLINK-36200", "group": "last-30-days", "lat": -37.80092225727087, "lon": -150.9633373501341, "alt_km": 304.38444589237497, "timestamp": "2025-12-21T09:37:21.375941+00:00", "meta": {"OBJECT_NAME": "STARLINK-36200", "OBJECT_ID": "2025-298AC", "EPOCH": "2025-12-21T04:00:01.998720", "MEAN_MOTION": 15.91563864, "ECCENTRICITY": 0.0004046, "INCLINATION": 69.9973, "RA_OF_ASC_NODE": 226.1304, "ARG_OF_PERICENTER": 276.1217, "MEAN_ANOMALY": 141.8286, "EPHEMERIS_TYPE": 0, "CLASSIFICATION_TYPE": "U", "NORAD_CAT_ID": 67101, "ELEMENT_SET_NO": 999, "REV_AT_EPOCH": 233, "BSTAR": -0.0057723, "MEAN_MOTION_DOT": -0.01861817, "MEAN_MOTION_DDOT": 0.00094966}, "tle": {"line1": "1 67101U 25298AC  25355.16668980 -.01861817  94966-3 -57723-2 0  9992", "line2": "2 67101  69.9973 226.1304 0004046 276.1217 141.8286 15.91563864  2334"}}, "geometry": {"type": "Point", "coordinates": [-150.9633373501341, -37.80092225727087]}}, {"type": "Feature", "properties": {"norad_id": 67102, "name": "STARLINK-36255", "group": "last-30-days", "lat": 40.638162948225386, "lon": 16.805110509626775, "alt_km": 284.61854466003206, "timestamp": "2025-12-21T09:37:21.375951+00:00", "meta": {"OBJECT_NAME": "STARLINK-36255", "OBJECT_ID": "2025-299A", "EPOCH": "2025-12-21T04:00:01.998720", "MEAN_MOTION": 15.95190286, "ECCENTRICITY": 0.0002097, "INCLINATION": 42.9995, "RA_OF_ASC_NODE": 265.3519, "ARG_OF_PERICENTER": 276.3345, "MEAN_ANOMALY": 284.1883, "EPHEMERIS_TYPE": 0, "CLASSIFICATION_TYPE": "U", "NORAD_CAT_ID": 67102, "ELEMENT_SET_NO": 999, "REV_AT_EPOCH": 216, "BSTAR": -0.0033474, "MEAN_MOTION_DOT": -0.01361093, "MEAN_MOTION_DDOT": 0.00054794}, "tle": {"line1": "1 67102U 25299A   25355.16668980 -.01361093  54794-3 -33474-2 0  9997", "line2": "2 67102  42.9995 265.3519 0002097 276.3345 284.1883 15.95190286  2164"}}, "geometry": {"type": "Point", "coordinates": [16.805110509626775, 40.638162948225386]}}, {"type": "Feature", "properties": {"norad_id": 67103, "name": "STARLINK-36256", "group": "last-30-days", "lat": 40.343636557695255, "lon": 18.168069064639656, "alt_km": 284.5440266030164, "timestamp": "2025-12-21T09:37:21.375961+00:00", "meta": {"OBJECT_NAME": "STARLINK-36256", "OBJECT_ID": "2025-299B", "EPOCH": "2025-12-21T04:00:01.998720", "MEAN_MOTION": 15.95245311, "ECCENTRICITY": 0.0002138, "INCLINATION": 42.9996, "RA_OF_ASC_NODE": 265.3494, "ARG_OF_PERICENTER": 275.5033, "MEAN_ANOMALY": 286.0539, "EPHEMERIS_TYPE": 0, "CLASSIFICATION_TYPE": "U", "NORAD_CAT_ID": 67103, "ELEMENT_SET_NO": 999, "REV_AT_EPOCH": 216, "BSTAR": -0.0033622, "MEAN_MOTION_DOT": -0.0137107, "MEAN_MOTION_DDOT": 0.00055562}, "tle": {"line1": "1 67103U 25299B   25355.16668980 -.01371070  55562-3 -33622-2 0  9993", "line2": "2 67103  42.9996 265.3494 0002138 275.5033 286.0539 15.95245311  2168"}}, "geometry": {"type": "Point", "coordinates": [18.168069064639656, 40.343636557695255]}}, {"type": "Feature", "properties": {"norad_id": 67104, "name": "STARLINK-36258", "group": "last-30-days", "lat": 39.975292391977504, "lon": 19.76146972682969, "alt_km": 284.4126248056873, "timestamp": "2025-12-21T09:37:21.375972+00:00", "meta": {"OBJECT_NAME": "STARLINK-36258", "OBJECT_ID": "2025-299C", "EPOCH": "2025-12-21T04:00:01.998720", "MEAN_MOTION": 15.95318203, "ECCENTRICITY": 0.0002153, "INCLINATION": 42.9996, "RA_OF_ASC_NODE": 265.3463, "ARG_OF_PERICENTER": 276.331, "MEAN_ANOMALY": 286.4385, "EPHEMERIS_TYPE": 0, "CLASSIFICATION_TYPE": "U", "NORAD_CAT_ID": 67104, "ELEMENT_SET_NO": 999, "REV_AT_EPOCH": 216, "BSTAR": -0.0033597, "MEAN_MOTION_DOT": -0.01375409, "MEAN_MOTION_DDOT": 0.00055926}, "tle": {"line1": "1 67104U 25299C   25355.16668980 -.01375409  55926-3 -33597-2 0  9999", "line2": "2 67104  42.9996 265.3463 0002153 276.3310 286.4385 15.95318203  2163"}}, "geometry": {"type": "Point", "coordinates": [19.76146972682969, 39.975292391977504]}}, {"type": "Feature", "properties": {"norad_id": 67105, "name": "STARLINK-36261", "group": "last-30-days", "lat": 39.67631121422017, "lon": 20.978356143786048, "alt_km": 283.72928754348413, "timestamp": "2025-12-21T09:37:21.375982+00:00", "meta": {"OBJECT_NAME": "STARLINK-36261", "OBJECT_ID": "2025-299D", "EPOCH": "2025-12-21T04:00:01.998720", "MEAN_MOTION": 15.95367574, "ECCENTRICITY": 0.0001272, "INCLINATION": 42.9995, "RA_OF_ASC_NODE": 265.344, "ARG_OF_PERICENTER": 278.4465, "MEAN_ANOMALY": 285.2585, "EPHEMERIS_TYPE": 0, "CLASSIFICATION_TYPE": "U", "NORAD_CAT_ID": 67105, "ELEMENT_SET_NO": 999, "REV_AT_EPOCH": 216, "BSTAR": -0.0033282, "MEAN_MOTION_DOT": -0.01366079, "MEAN_MOTION_DDOT": 0.0005526}, "tle": {"line1": "1 67105U 25299D   25355.16668980 -.01366079  55260-3 -33282-2 0  9995", "line2": "2 67105  42.9995 265.3440 0001272 278.4465 285.2585 15.95367574  2167"}}, "geometry": {"type": "Point", "coordinates": [20.978356143786048, 39.67631121422017]}}, {"type": "Feature", "properties": {"norad_id": 67106, "name": "STARLINK-36259", "group": "last-30-days", "lat": 38.71778196165209, "lon": 24.518615760762042, "alt_km": 283.99568996121616, "timestamp": "2025-12-21T09:37:21.375993+00:00", "meta": {"OBJECT_NAME": "STARLINK-36259", "OBJECT_ID": "2025-299E", "EPOCH": "2025-12-21T04:00:01.998720", "MEAN_MOTION": 15.95541115, "ECCENTRICITY": 0.0002189, "INCLINATION": 42.9994, "RA_OF_ASC_NODE": 265.337, "ARG_OF_PERICENTER": 274.3597, "MEAN_ANOMALY": 292.1163, "EPHEMERIS_TYPE": 0, "CLASSIFICATION_TYPE": "U", "NORAD_CAT_ID": 67106, "ELEMENT_SET_NO": 999, "REV_AT_EPOCH": 216, "BSTAR": -0.0033576, "MEAN_MOTION_DOT": -0.01391104, "MEAN_MOTION_DDOT": 0.0005723}, "tle": {"line1": "1 67106U 25299E   25355.16668980 -.01391104  57230-3 -33576-2 0  9998", "line2": "2 67106  42.9994 265.3370 0002189 274.3597 292.1163 15.95541115  2162"}}, "geometry": {"type": "Point", "coordinates": [24.518615760762042, 38.71778196165209]}}, {"type": "Feature", "properties": {"norad_id": 67107, "name": "STARLINK-36196", "group": "last-30-days", "lat": 39.24355029762652, "lon": 22.638450516312414, "alt_km": 283.7840979020348, "timestamp": "2025-12-21T09:37:21.376007+00:00", "meta": {"OBJECT_NAME": "STARLINK-36196", "OBJECT_ID": "2025-299F", "EPOCH": "2025-12-21T04:00:01.998720", "MEAN_MOTION": 15.95459423, "ECCENTRICITY": 0.0001686, "INCLINATION": 42.9995, "RA_OF_ASC_NODE": 265.3408, "ARG_OF_PERICENTER": 269.3596, "MEAN_ANOMALY": 295.6302, "EPHEMERIS_TYPE": 0, "CLASSIFICATION_TYPE": "U", "NORAD_CAT_ID": 67107, "ELEMENT_SET_NO": 999, "REV_AT_EPOCH": 216, "BSTAR": -0.0033629, "MEAN_MOTION_DOT": -0.01387032, "MEAN_MOTION_DDOT": 0.00056876}, "tle": {"line1": "1 67107U 25299F   25355.16668980 -.01387032  56876-3 -33629-2 0  9998", "line2": "2 67107  42.9995 265.3408 0001686 269.3596 295.6302 15.95459423  2163"}}, "geometry": {"type": "Point", "coordinates": [22.638450516312414, 39.24355029762652]}}, {"type": "Feature", "properties": {"norad_id": 67108, "name": "STARLINK-36208", "group": "last-30-days", "lat": 38.170976222881265, "lon": 26.343239423947907, "alt_km": 283.77579419003814, "timestamp": "2025-12-21T09:37:21.376024+00:00", "meta": {"OBJECT_NAME": "STARLINK-36208", "OBJECT_ID": "2025-299G", "EPOCH": "2025-12-21T04:00:01.998720", "MEAN_MOTION": 15.95642011, "ECCENTRICITY": 0.0002115, "INCLINATION": 42.9996, "RA_OF_ASC_NODE": 265.3333, "ARG_OF_PERICENTER": 274.2841, "MEAN_ANOMALY": 293.6428, "EPHEMERIS_TYPE": 0, "CLASSIFICATION_TYPE": "U", "NORAD_CAT_ID": 67108, "ELEMENT_SET_NO": 999, "REV_AT_EPOCH": 216, "BSTAR": -0.0033997, "MEAN_MOTION_DOT": -0.01415965, "MEAN_MOTION_DDOT": 0.00059179}, "tle": {"line1": "1 67108U 25299G   25355.16668980 -.01415965  59179-3 -33997-2 0  9993", "line2": "2 67108  42.9996 265.3333 0002115 274.2841 293.6428 15.95642011  2162"}}, "geometry": {"type": "Point", "coordinates": [26.343239423947907, 38.170976222881265]}}, {"type": "Feature", "properties": {"norad_id": 67109, "name": "STARLINK-35764", "group": "last-30-days", "lat": 37.5404933099552, "lon": 28.30775966504676, "alt_km": 283.2747958203481, "timestamp": "2025-12-21T09:37:21.376035+00:00", "meta": {"OBJECT_NAME": "STARLINK-35764", "OBJECT_ID": "2025-299H", "EPOCH": "2025-12-21T04:00:01.998720", "MEAN_MOTION": 15.95750822, "ECCENTRICITY": 0.000171, "INCLINATION": 42.9996, "RA_OF_ASC_NODE": 265.3293, "ARG_OF_PERICENTER": 270.8599, "MEAN_ANOMALY": 298.6509, "EPHEMERIS_TYPE": 0, "CLASSIFICATION_TYPE": "U", "NORAD_CAT_ID": 67109, "ELEMENT_SET_NO": 999, "REV_AT_EPOCH": 205, "BSTAR": -0.0033849, "MEAN_MOTION_DOT": -0.01418002, "MEAN_MOTION_DDOT": 0.00059401}, "tle": {"line1": "1 67109U 25299H   25355.16668980 -.01418002  59401-3 -33849-2 0  9993", "line2": "2 67109  42.9996 265.3293 0001710 270.8599 298.6509 15.95750822  2053"}}, "geometry": {"type": "Point", "coordinates": [28.30775966504676, 37.5404933099552]}}]}